#dP2020  5 25  0  0  0.00000000      96 __u+U ITR00 FIT  IAC
## 2107  86400.00000000   900.00000000 58994 0.0000000000000
+  116   C06C07C08C09C10C11C12C13C14C16C19C20C21C22C23C24C25
+        C26C27C28C29C30C32C33C34C35C36C37C39C40C43C44C45C46
+        E01E02E03E04E05E07E08E09E11E12E13E14E15E18E19E21E24
+        E25E26E27E30E31E33E36G01G02G03G04G05G06G07G08G09G10
+        G11G12G13G14G15G16G17G18G19G20G21G22G23G24G25G26G27
+        G28G29G30G31G32J01J02J03R01R02R03R04R05R07R08R09R11
+        R12R13R14R15R16R17R18R19R20R21R22R23R24R26  0  0  0
++         8  8  7  8  8  7  7  7  7  7  7  7  6  7  6  7  6
++         7  6  7  9  7  8  5  8 10  6  9  5  5 10  9  9  9
++         5  5  6  5  6  6  6  6  5  6  6  6  6  5  6  6  6
++         5  6  6  6  7  6  5  6  6  5  4  7  5  6  5  6  6
++         5  6  6  6  5  6  5  6  5  5  5  0  7  6  6  6  6
++         4  6  6  5  5  9 10  8  6  7  6  7  6  7  7  5  6
++         7  7  7  4  7  7  8  7  8  5  8  7  6  6  0  0  0
%c M  cc GPS ccc cccc cccc cccc cccc ccccc ccccc ccccc ccccc
%c cc cc ccc ccc cccc cccc cccc cccc ccccc ccccc ccccc ccccc
%f  0.0000000  0.000000000  0.00000000000  0.000000000000000
%f  0.0000000  0.000000000  0.00000000000  0.000000000000000
%i    0    0    0    0      0      0      0      0         0
%i    0    0    0    0      0      0      0      0         0
/* INFORMATION & ANALYSIS CENTER (IAC)      ULTRA-RAPID DATA
/* S/V CLOCKS ARE ALIGNED TO GNSS TIME                      
/* G:C1WC2W R:C1PC2P E:C1XC5X C:C2IC6I J:C1CC2S             
/* PCV:IGS14_2101 OL/AL:FES2004  NONE     YN ORB:CoN CLK:CoN
*  2020 05 25  0 30  0.00000000
PC06 -18286.200808  37554.223224  -3257.077654    738.287191
PC07  -9154.560677  27066.464234  31324.839049    -59.584885
PC08 -23546.140183  20607.513205 -28339.089242   -271.449077
PC09  -7773.293929  39110.871500  13382.783464    563.420067
PC10   5578.549231  34471.725837  24100.548116   -280.744181
PC11   7707.693840 -23555.764959  12832.037120   -385.568643
PC12  19158.831369 -19629.248901  -5045.725491    381.775203
PC13  -7278.719012  23664.294990 -34091.458598    453.881366
PC14  -2638.477826 -25486.462510  11016.032532    447.049025
PC16 -16186.396792  38813.026475   -677.397956   -634.882361
PC19   9691.997882  26087.062018  -2187.222203    422.838160
PC20  -3868.223935  21469.213449 -17398.760552   -867.794794
PC21  15672.509118  -3778.927629  22804.188800   -441.884326
PC22  17877.891482  15710.686002  14609.940388   -799.189055
PC23 -25158.112689  -9024.002539  -8009.412739   -867.859844
PC24  12080.749122 -13591.655358 -21168.520719   -811.630041
PC25 -10200.146073 -15773.837851 -20645.184486   -628.430253
PC26  25758.744755  -4287.776287  -9805.795337    692.928150
PC27 -21216.736235  12317.539526  13261.066225    335.795513
PC28 -15187.502300  -5965.662355  22638.569761   -226.069674
PC29   1103.294531  20665.269968 -18727.226195    233.103496
PC30 -14129.303248  23790.786656  -3528.099330    321.907543
PC32 -15612.103345   3956.575060 -22767.129125   -887.499309
PC33  -9727.381019 -26041.688871   2307.898534   -828.584991
PC34  13927.173332 -23872.079667   3956.138756   -748.985074
PC35  15346.416377   5630.116894 -22624.543513   -829.014102
PC36   9563.134457  16045.190886  20759.903737   -834.416906
PC37 -26141.676561   3264.039642   9235.443712   -844.487298
PC39 -11702.501513  40389.642596   1976.949501     16.451393
PC40   1061.100374  31057.701372  28581.808141     46.386233
PC43   -773.067883 -20899.116463  18482.424467   -208.411726
PC44  20900.768538 -12815.400282 -13369.250508   -238.518718
PC45  25176.281028   8914.836367   8074.333156    139.645340
PC46 -11548.275840  13693.253782  21413.414889 999999.999999
PE01 -25628.363597 -14707.177537   1731.254344   -863.487655
PE02  25653.213718  14646.080759  -1827.467027    135.663568
PE03  14984.467736  13401.272398  21738.736414   -302.349257
PE04 -16543.304423   8982.076768 -22831.418446   -532.126915
PE05   4612.340084  28163.674200   7874.007097   -377.410477
PE07   8393.830196 -26365.928396  10510.847186   -386.388807
PE08  16321.117043  -9305.835794  22878.986370   6173.524112
PE09  -8079.674369  26500.320093 -10435.896242   6050.501478
PE11 -17331.841540  19693.484562 -13695.548732   3035.853175
PE12 -27058.300515  10712.769537   5340.500597   5788.930570
PE13  17502.456967 -19692.698103  13506.806585    401.090118
PE14 -16767.573490   8417.154543  15421.482005  -1025.610478
PE15  27001.836471 -10993.917064  -5144.648505    865.899404
PE18  21550.502345  -1518.512048 -23633.900510  -1125.250728
PE19 -14124.699266 -15521.337398 -20862.784288  -2607.537557
PE21 -13514.270664 -20955.541136 -15952.118891   -600.776681
PE24  -7088.048201  14952.632937  24528.227469   5438.289341
PE25  13402.936919  20958.692238  16044.887794   -511.107138
PE26  -2695.104039 -16814.454707  24213.528868   3151.214541
PE27   6735.189884 -15096.708764 -24553.876342    212.958137
PE30  23134.963074    -39.585461 -18471.285726   3880.680688
PE31 -22937.667050    405.750075  18706.064903   -472.650570
PE33 -20637.171938  -4184.750811  20801.156551   -466.906251
PE36   2287.276996  16829.578888 -24238.302784    555.840738
PG01   2110.197620  14757.365365 -22193.346201   -384.771452
PG02  19145.113702 -14471.012981  11956.513615   -461.298980
PG03  10136.004314  22094.490488 -10883.306657   -186.583167
PG04   1708.836181  23039.054190  13090.126009    -93.714233
PG05   8257.984290 -13247.869934  21332.243649    -13.316609
PG06  25637.607890  -6870.098923   1552.666136   -277.408757
PG07  20171.716350   7450.132598  16206.697746   -288.775428
PG08  -5980.836122  25638.339646  -2204.668860    -35.164069
PG09  10417.288926  14335.128608  19732.140860   -223.659824
PG10 -20840.078540  -7414.622708 -14784.905579   -351.083924
PG11  -6138.756430  20922.850505 -15859.651736   -267.924794
PG12  -8075.939649 -22654.084486 -11681.258131    114.048784
PG13  13299.348679 -22574.720618   3918.058670     12.688302
PG14 -16922.898491  12399.512028 -15826.002873    -10.689811
PG15   2798.250749 -26052.010199  -3138.201510   -228.935126
PG16  -7696.040856  13464.116999  21275.692943   -162.190616
PG17  15825.009030  -2985.751461 -20691.467898    270.051696
PG18 -19504.932128  -7658.293413  16324.416848    200.060658
PG19  17246.572144 -10633.565301 -17462.732906   -154.332546
PG20 -22083.964109 -14442.108513  -4013.446441    527.633772
PG21 -22425.544184  -3891.985782  14238.788510      2.925916
PG22   2698.614443  19867.136579 -17266.506431 999999.999999
PG23  12771.311761  10744.245460  20988.631837   -111.470070
PG24   -826.289786 -16062.977382 -21296.305205    -13.441906
PG25 -16171.390465 -21014.803554  -3390.935669      6.848607
PG26 -16653.694245   3966.357018  20323.439065    212.693850
PG27 -12420.029737  21807.839758   8011.373912   -302.613247
PG28  19351.651042   7807.467142 -15763.005896    714.563015
PG29  -6383.570590 -17720.351740  18670.651237   -112.124227
PG30  25790.653829    194.472374   6840.259254   -227.284924
PG31 -25638.007219   7215.941588   3003.618460    -44.620593
PG32 -16329.854790   4292.884245 -20383.903087    287.094508
PJ01 -19558.092224  25185.087108 -22985.875054   -298.553097
PJ02 -27409.322721  21361.471405  28721.077445     -0.201655
PJ03 -32271.193165  26202.664784  11972.964252     -3.330688
PR01  12272.497747   7119.074797  21210.266516     62.029449
PR02   6226.700590 -15122.825575  19640.705966    428.297090
PR03  -2816.618727 -24780.851485   5513.442039     15.598070
PR04 -10133.981779 -20285.767003 -11650.142625     50.310910
PR05 -11671.975009  -4407.612597 -22235.003473     51.062047
PR07   3152.081796  24825.440041  -4797.856274    -36.881298
PR08  10218.689783  20225.266258  11759.994656    -52.427008
PR09 -11043.845717   7693.397000  21666.283928    134.372763
PR11  20216.965755  11566.727211  10471.579248    -24.735584
PR12  24319.161423   4507.967562  -6175.922204    133.498069
PR13  14649.829314  -5582.822124 -20140.936663    -39.113313
PR14  -3664.830143 -12235.236568 -22067.397291     51.557696
PR15 -19616.293116 -11781.086413 -11253.372611    106.519762
PR16 -24393.270650  -3709.074185   6687.430364     -3.725921
PR17   8694.137419 -17797.645436  16057.148732    327.522259
PR18  -5877.371376  -8786.492160  23226.329700     36.505489
PR19 -17326.141326   4207.354345  18237.134606    -94.863119
PR20 -19528.256992  16355.015226    730.155559   -412.536045
PR21  -8044.013674  17489.151168 -16751.644720   -126.738090
PR22   8073.017270   6739.884410 -23241.901237     -2.815025
PR23  19612.414192  -9656.737377 -13160.636073    307.685219
PR24  19220.451871 -16764.642710     42.835492     -0.131127
PR26 -20101.604237  14724.679949   5521.605733   -394.654184
EOF
